[{"OBJECT_NAME":"STARLINK-3300","OBJECT_ID":"2022-001AQ","EPOCH":"2026-03-29T03:58:05.731968","MEAN_MOTION":15.08837785,"ECCENTRICITY":0.0001303,"INCLINATION":53.217,"RA_OF_ASC_NODE":91.6902,"ARG_OF_PERICENTER":88.9259,"MEAN_ANOMALY":271.1882,"EPHEMERIS_TYPE":0,"CLASSIFICATION_TYPE":"U","NORAD_CAT_ID":50841,"ELEMENT_SET_NO":999,"REV_AT_EPOCH":23320,"BSTAR":2.4553e-5,"MEAN_MOTION_DOT":1.03e-6,"MEAN_MOTION_DDOT":0},{"OBJECT_NAME":"STARLINK-3302","OBJECT_ID":"2022-001AR","EPOCH":"2026-03-29T05:12:17.491104","MEAN_MOTION":15.08852971,"ECCENTRICITY":0.0001034,"INCLINATION":53.2169,"RA_OF_ASC_NODE":91.4603,"ARG_OF_PERICENTER":82.5299,"MEAN_ANOMALY":277.5811,"EPHEMERIS_TYPE":0,"CLASSIFICATION_TYPE":"U","NORAD_CAT_ID":50842,"ELEMENT_SET_NO":999,"REV_AT_EPOCH":23320,"BSTAR":7.8292e-5,"MEAN_MOTION_DOT":9.59e-6,"MEAN_MOTION_DDOT":0},{"OBJECT_NAME":"STARLINK-3325","OBJECT_ID":"2022-001AS","EPOCH":"2026-03-29T04:00:01.999584","MEAN_MOTION":15.6359639,"ECCENTRICITY":0.0001268,"INCLINATION":53.2174,"RA_OF_ASC_NODE":78.1147,"ARG_OF_PERICENTER":81.5414,"MEAN_ANOMALY":345.9998,"EPHEMERIS_TYPE":0,"CLASSIFICATION_TYPE":"U","NORAD_CAT_ID":50843,"ELEMENT_SET_NO":999,"REV_AT_EPOCH":557,"BSTAR":0.0039915,"MEAN_MOTION_DOT":0.00396134,"MEAN_MOTION_DDOT":0},{"OBJECT_NAME":"STARLINK-3326","OBJECT_ID":"2022-001AT","EPOCH":"2026-03-29T04:56:23.311968","MEAN_MOTION":15.08847929,"ECCENTRICITY":0.000164,"INCLINATION":53.2173,"RA_OF_ASC_NODE":91.5111,"ARG_OF_PERICENTER":86.2754,"MEAN_ANOMALY":273.8425,"EPHEMERIS_TYPE":0,"CLASSIFICATION_TYPE":"U","NORAD_CAT_ID":50844,"ELEMENT_SET_NO":999,"REV_AT_EPOCH":23321,"BSTAR":5.4429e-5,"MEAN_MOTION_DOT":5.78e-6,"MEAN_MOTION_DDOT":0},{"OBJECT_NAME":"STARLINK-3230","OBJECT_ID":"2022-001AU","EPOCH":"2026-03-29T04:24:35.995680","MEAN_MOTION":15.08836051,"ECCENTRICITY":0.0001347,"INCLINATION":53.2164,"RA_OF_ASC_NODE":91.6081,"ARG_OF_PERICENTER":83.5889,"MEAN_ANOMALY":276.5256,"EPHEMERIS_TYPE":0,"CLASSIFICATION_TYPE":"U","NORAD_CAT_ID":50845,"ELEMENT_SET_NO":999,"REV_AT_EPOCH":23321,"BSTAR":3.6123e-5,"MEAN_MOTION_DOT":2.87e-6,"MEAN_MOTION_DDOT":0},{"OBJECT_NAME":"STARLINK-3308","OBJECT_ID":"2022-001AV","EPOCH":"2026-03-29T05:07:00.234624","MEAN_MOTION":15.08840585,"ECCENTRICITY":8.55e-5,"INCLINATION":53.2167,"RA_OF_ASC_NODE":91.592,"ARG_OF_PERICENTER":69.1606,"MEAN_ANOMALY":290.9478,"EPHEMERIS_TYPE":0,"CLASSIFICATION_TYPE":"U","NORAD_CAT_ID":50846,"ELEMENT_SET_NO":999,"REV_AT_EPOCH":23321,"BSTAR":6.5147e-5,"MEAN_MOTION_DOT":7.49e-6,"MEAN_MOTION_DDOT":0},{"OBJECT_NAME":"STARLINK-3315","OBJECT_ID":"2022-001AX","EPOCH":"2026-03-29T04:45:49.148064","MEAN_MOTION":15.0884214,"ECCENTRICITY":0.0001324,"INCLINATION":53.217,"RA_OF_ASC_NODE":91.5435,"ARG_OF_PERICENTER":76.2,"MEAN_ANOMALY":283.9139,"EPHEMERIS_TYPE":0,"CLASSIFICATION_TYPE":"U","NORAD_CAT_ID":50848,"ELEMENT_SET_NO":999,"REV_AT_EPOCH":23321,"BSTAR":0.00011692,"MEAN_MOTION_DOT":1.574e-5,"MEAN_MOTION_DDOT":0},{"OBJECT_NAME":"STARLINK-3311","OBJECT_ID":"2022-001AY","EPOCH":"2026-03-29T05:01:41.066112","MEAN_MOTION":15.08876819,"ECCENTRICITY":0.0001405,"INCLINATION":53.2169,"RA_OF_ASC_NODE":91.4934,"ARG_OF_PERICENTER":89.5272,"MEAN_ANOMALY":270.5882,"EPHEMERIS_TYPE":0,"CLASSIFICATION_TYPE":"U","NORAD_CAT_ID":50849,"ELEMENT_SET_NO":999,"REV_AT_EPOCH":23321,"BSTAR":-0.00050046,"MEAN_MOTION_DOT":-8.252e-5,"MEAN_MOTION_DDOT":0},{"OBJECT_NAME":"STARLINK-3312","OBJECT_ID":"2022-001AZ","EPOCH":"2026-03-29T05:06:59.987520","MEAN_MOTION":15.08836027,"ECCENTRICITY":0.0001556,"INCLINATION":53.2186,"RA_OF_ASC_NODE":51.4758,"ARG_OF_PERICENTER":84.1049,"MEAN_ANOMALY":276.012,"EPHEMERIS_TYPE":0,"CLASSIFICATION_TYPE":"U","NORAD_CAT_ID":50850,"ELEMENT_SET_NO":999,"REV_AT_EPOCH":23431,"BSTAR":-8.435e-6,"MEAN_MOTION_DOT":-4.22e-6,"MEAN_MOTION_DDOT":0},{"OBJECT_NAME":"STARLINK-3314","OBJECT_ID":"2022-001BA","EPOCH":"2026-03-28T17:22:11.006400","MEAN_MOTION":15.08840542,"ECCENTRICITY":0.0001413,"INCLINATION":53.2168,"RA_OF_ASC_NODE":93.599,"ARG_OF_PERICENTER":88.2197,"MEAN_ANOMALY":271.8957,"EPHEMERIS_TYPE":0,"CLASSIFICATION_TYPE":"U","NORAD_CAT_ID":50851,"ELEMENT_SET_NO":999,"REV_AT_EPOCH":23314,"BSTAR":2.56182e-6,"MEAN_MOTION_DOT":-2.47e-6,"MEAN_MOTION_DDOT":0},{"OBJECT_NAME":"STARLINK-3366","OBJECT_ID":"2022-005A","EPOCH":"2026-03-29T00:22:09.655392","MEAN_MOTION":15.08839258,"ECCENTRICITY":0.0001413,"INCLINATION":53.2177,"RA_OF_ASC_NODE":202.3661,"ARG_OF_PERICENTER":89.4052,"MEAN_ANOMALY":270.7102,"EPHEMERIS_TYPE":0,"CLASSIFICATION_TYPE":"U","NORAD_CAT_ID":51104,"ELEMENT_SET_NO":999,"REV_AT_EPOCH":23179,"BSTAR":5.6066e-5,"MEAN_MOTION_DOT":6.04e-6,"MEAN_MOTION_DDOT":0},{"OBJECT_NAME":"STARLINK-3350","OBJECT_ID":"2022-005B","EPOCH":"2026-03-28T15:48:07.456032","MEAN_MOTION":15.08844697,"ECCENTRICITY":0.00012904,"INCLINATION":53.2167,"RA_OF_ASC_NODE":203.9666,"ARG_OF_PERICENTER":83.3599,"MEAN_ANOMALY":276.754,"EPHEMERIS_TYPE":0,"CLASSIFICATION_TYPE":"U","NORAD_CAT_ID":51105,"ELEMENT_SET_NO":999,"REV_AT_EPOCH":23174,"BSTAR":9.8506758e-5,"MEAN_MOTION_DOT":1.28e-5,"MEAN_MOTION_DDOT":0},{"OBJECT_NAME":"STARLINK-3176","OBJECT_ID":"2022-005C","EPOCH":"2026-03-29T00:48:39.779136","MEAN_MOTION":15.08842303,"ECCENTRICITY":0.0001202,"INCLINATION":53.2165,"RA_OF_ASC_NODE":202.2829,"ARG_OF_PERICENTER":90.1445,"MEAN_ANOMALY":269.9685,"EPHEMERIS_TYPE":0,"CLASSIFICATION_TYPE":"U","NORAD_CAT_ID":51106,"ELEMENT_SET_NO":999,"REV_AT_EPOCH":23179,"BSTAR":6.8003e-5,"MEAN_MOTION_DOT":7.95e-6,"MEAN_MOTION_DDOT":0},{"OBJECT_NAME":"STARLINK-3362","OBJECT_ID":"2022-005E","EPOCH":"2026-03-28T17:18:12.608928","MEAN_MOTION":15.08846173,"ECCENTRICITY":0.0001409,"INCLINATION":53.2154,"RA_OF_ASC_NODE":203.682,"ARG_OF_PERICENTER":90.0464,"MEAN_ANOMALY":270.069,"EPHEMERIS_TYPE":0,"CLASSIFICATION_TYPE":"U","NORAD_CAT_ID":51108,"ELEMENT_SET_NO":999,"REV_AT_EPOCH":23175,"BSTAR":0.00010642,"MEAN_MOTION_DOT":1.406e-5,"MEAN_MOTION_DDOT":0},{"OBJECT_NAME":"STARLINK-3358","OBJECT_ID":"2022-005F","EPOCH":"2026-03-29T00:06:14.720256","MEAN_MOTION":15.08855826,"ECCENTRICITY":0.0001227,"INCLINATION":53.217,"RA_OF_ASC_NODE":202.3655,"ARG_OF_PERICENTER":92.2373,"MEAN_ANOMALY":267.876,"EPHEMERIS_TYPE":0,"CLASSIFICATION_TYPE":"U","NORAD_CAT_ID":51109,"ELEMENT_SET_NO":999,"REV_AT_EPOCH":23156,"BSTAR":0.00024312,"MEAN_MOTION_DOT":3.585e-5,"MEAN_MOTION_DDOT":0},{"OBJECT_NAME":"STARLINK-3344","OBJECT_ID":"2022-005G","EPOCH":"2026-03-29T00:59:14.904672","MEAN_MOTION":15.08836823,"ECCENTRICITY":0.000115,"INCLINATION":53.2164,"RA_OF_ASC_NODE":202.2239,"ARG_OF_PERICENTER":97.5428,"MEAN_ANOMALY":262.5695,"EPHEMERIS_TYPE":0,"CLASSIFICATION_TYPE":"U","NORAD_CAT_ID":51110,"ELEMENT_SET_NO":999,"REV_AT_EPOCH":23180,"BSTAR":2.3247e-5,"MEAN_MOTION_DOT":8.2e-7,"MEAN_MOTION_DDOT":0},{"OBJECT_NAME":"STARLINK-3173","OBJECT_ID":"2022-005H","EPOCH":"2026-03-29T00:27:27.474336","MEAN_MOTION":15.08834329,"ECCENTRICITY":0.0001273,"INCLINATION":53.2159,"RA_OF_ASC_NODE":202.3497,"ARG_OF_PERICENTER":86.2987,"MEAN_ANOMALY":273.8151,"EPHEMERIS_TYPE":0,"CLASSIFICATION_TYPE":"U","NORAD_CAT_ID":51111,"ELEMENT_SET_NO":999,"REV_AT_EPOCH":23179,"BSTAR":2.5548e-5,"MEAN_MOTION_DOT":1.19e-6,"MEAN_MOTION_DDOT":0},{"OBJECT_NAME":"STARLINK-3374","OBJECT_ID":"2022-005J","EPOCH":"2026-03-29T00:55:18.911712","MEAN_MOTION":15.08848507,"ECCENTRICITY":0.000127,"INCLINATION":53.2169,"RA_OF_ASC_NODE":202.2267,"ARG_OF_PERICENTER":118.7853,"MEAN_ANOMALY":241.3267,"EPHEMERIS_TYPE":0,"CLASSIFICATION_TYPE":"U","NORAD_CAT_ID":51112,"ELEMENT_SET_NO":999,"REV_AT_EPOCH":23180,"BSTAR":-7.671e-6,"MEAN_MOTION_DOT":-4.1e-6,"MEAN_MOTION_DDOT":0},{"OBJECT_NAME":"STARLINK-3372","OBJECT_ID":"2022-005K","EPOCH":"2026-03-29T03:54:07.678368","MEAN_MOTION":15.0884043,"ECCENTRICITY":0.0001395,"INCLINATION":53.2153,"RA_OF_ASC_NODE":201.7058,"ARG_OF_PERICENTER":81.5706,"MEAN_ANOMALY":278.5445,"EPHEMERIS_TYPE":0,"CLASSIFICATION_TYPE":"U","NORAD_CAT_ID":51113,"ELEMENT_SET_NO":999,"REV_AT_EPOCH":23181,"BSTAR":0.00011167,"MEAN_MOTION_DOT":1.49e-5,"MEAN_MOTION_DDOT":0},{"OBJECT_NAME":"STARLINK-3375","OBJECT_ID":"2022-005L","EPOCH":"2026-03-29T01:09:51.106752","MEAN_MOTION":15.08842,"ECCENTRICITY":0.0001315,"INCLINATION":53.2175,"RA_OF_ASC_NODE":202.2121,"ARG_OF_PERICENTER":93.8703,"MEAN_ANOMALY":266.2439,"EPHEMERIS_TYPE":0,"CLASSIFICATION_TYPE":"U","NORAD_CAT_ID":51114,"ELEMENT_SET_NO":999,"REV_AT_EPOCH":23180,"BSTAR":3.9423e-5,"MEAN_MOTION_DOT":3.4e-6,"MEAN_MOTION_DDOT":0},{"OBJECT_NAME":"STARLINK-3397","OBJECT_ID":"2022-005M","EPOCH":"2026-03-29T00:32:45.524832","MEAN_MOTION":15.08850667,"ECCENTRICITY":0.0001246,"INCLINATION":53.2171,"RA_OF_ASC_NODE":202.3331,"ARG_OF_PERICENTER":99.8132,"MEAN_ANOMALY":260.3,"EPHEMERIS_TYPE":0,"CLASSIFICATION_TYPE":"U","NORAD_CAT_ID":51115,"ELEMENT_SET_NO":999,"REV_AT_EPOCH":23179,"BSTAR":-0.0002015,"MEAN_MOTION_DOT":-3.494e-5,"MEAN_MOTION_DDOT":0},{"OBJECT_NAME":"STARLINK-3243","OBJECT_ID":"2022-005N","EPOCH":"2026-03-29T00:50:01.136832","MEAN_MOTION":15.08845609,"ECCENTRICITY":0.0001168,"INCLINATION":53.2169,"RA_OF_ASC_NODE":202.2507,"ARG_OF_PERICENTER":89.3577,"MEAN_ANOMALY":270.7549,"EPHEMERIS_TYPE":0,"CLASSIFICATION_TYPE":"U","NORAD_CAT_ID":51116,"ELEMENT_SET_NO":999,"REV_AT_EPOCH":23179,"BSTAR":3.4478e-5,"MEAN_MOTION_DOT":2.61e-6,"MEAN_MOTION_DDOT":0},{"OBJECT_NAME":"STARLINK-3391","OBJECT_ID":"2022-005P","EPOCH":"2026-03-28T19:09:28.661760","MEAN_MOTION":15.08844921,"ECCENTRICITY":0.00010286,"INCLINATION":53.2186,"RA_OF_ASC_NODE":203.2255,"ARG_OF_PERICENTER":89.7507,"MEAN_ANOMALY":270.3603,"EPHEMERIS_TYPE":0,"CLASSIFICATION_TYPE":"U","NORAD_CAT_ID":51117,"ELEMENT_SET_NO":999,"REV_AT_EPOCH":23176,"BSTAR":4.7296798e-5,"MEAN_MOTION_DOT":4.65e-6,"MEAN_MOTION_DDOT":0}]
